[{"OBJECT_NAME":"STARLINK-34363","OBJECT_ID":"2025-133AB","EPOCH":"2026-03-09T10:47:30.152256","MEAN_MOTION":15.30124969,"ECCENTRICITY":0.0001463,"INCLINATION":53.161,"RA_OF_ASC_NODE":117.7629,"ARG_OF_PERICENTER":77.999,"MEAN_ANOMALY":282.1175,"EPHEMERIS_TYPE":0,"CLASSIFICATION_TYPE":"U","NORAD_CAT_ID":64497,"ELEMENT_SET_NO":999,"REV_AT_EPOCH":4115,"BSTAR":0.00045496528,"MEAN_MOTION_DOT":0.00013108,"MEAN_MOTION_DDOT":0},{"OBJECT_NAME":"BREEZE-M DEB [TANK]","OBJECT_ID":"2003-024B","EPOCH":"2026-03-09T12:02:54.498624","MEAN_MOTION":6.18182434,"ECCENTRICITY":0.46943851,"INCLINATION":49.4441,"RA_OF_ASC_NODE":180.7307,"ARG_OF_PERICENTER":37.4043,"MEAN_ANOMALY":347.5117,"EPHEMERIS_TYPE":0,"CLASSIFICATION_TYPE":"U","NORAD_CAT_ID":27821,"ELEMENT_SET_NO":999,"REV_AT_EPOCH":46864,"BSTAR":0.00073411804,"MEAN_MOTION_DOT":8.294e-5,"MEAN_MOTION_DDOT":0}]
